GLOBALSTAR M024         
1 25883U 99043A   24321.27963427 -.00000042  00000+0  80261-3 0  9999
2 25883  51.9968 141.0144 0002659  99.2870  72.0682 11.10159762 91219
GLOBALSTAR M027         
1 25884U 99043B   24321.15812024 -.00000047  00000+0  62240-3 0  9995
2 25884  52.0200 213.2370 0021859   9.5459 350.5746 11.04371018117705
GLOBALSTAR M054         
1 25885U 99043C   24321.16739830 -.00000056  00000+0  37884-3 0  9996
2 25885  52.0170  16.2619 0006368 172.2487 217.2814 11.39205821 94778
GLOBALSTAR M053         
1 25886U 99043D   24321.25823580 -.00000066  00000+0  87801-4 0  9999
2 25886  51.9996 311.3270 0003585  75.5481  45.1945 11.27660246 95421
GLOBALSTAR M058         
1 25907U 99049A   24322.11771973 -.00000022  00000+0  84511-3 0  9999
2 25907  51.9951 315.4533 0001587 224.5593 135.5114 11.93192709127439
GLOBALSTAR M050         
1 25908U 99049B   24322.13134362 -.00000015  00000+0  83114-3 0  9997
2 25908  52.0012 338.9348 0009056 330.3923 101.1377 12.07444167127306
GLOBALSTAR M033         
1 25909U 99049C   24321.46711438 -.00000014  00000+0  74391-3 0  9994
2 25909  51.9905 227.2845 0012264 182.4673 177.6116 12.20292838142498
GLOBALSTAR M055         
1 25910U 99049D   24321.49254711 -.00000051  00000+0  37240-3 0  9998
2 25910  52.0016 248.3125 0007869  50.6984 309.4564 12.29414524142349
